[{"OBJECT_NAME":"STARLINK-30236","OBJECT_ID":"2023-096L","EPOCH":"2026-03-09T22:00:01.999584","MEAN_MOTION":15.1572476,"ECCENTRICITY":7.262e-5,"INCLINATION":42.9994,"RA_OF_ASC_NODE":221.2661,"ARG_OF_PERICENTER":291.1862,"MEAN_ANOMALY":273.7495,"EPHEMERIS_TYPE":0,"CLASSIFICATION_TYPE":"U","NORAD_CAT_ID":57300,"ELEMENT_SET_NO":999,"REV_AT_EPOCH":572,"BSTAR":0.0063877157,"MEAN_MOTION_DOT":0.00125921,"MEAN_MOTION_DDOT":0},{"OBJECT_NAME":"FENGYUN 1C DEB","OBJECT_ID":"1999-025BDP","EPOCH":"2026-03-09T13:06:28.874592","MEAN_MOTION":14.76824991,"ECCENTRICITY":0.02629979,"INCLINATION":98.3487,"RA_OF_ASC_NODE":187.0157,"ARG_OF_PERICENTER":325.1899,"MEAN_ANOMALY":33.2345,"EPHEMERIS_TYPE":0,"CLASSIFICATION_TYPE":"U","NORAD_CAT_ID":31021,"ELEMENT_SET_NO":999,"REV_AT_EPOCH":74713,"BSTAR":0.00051474289,"MEAN_MOTION_DOT":6.356e-5,"MEAN_MOTION_DDOT":0}]
